BEIDOU-3 IGSO-2         
1 44337U 19035A   22337.45188355 -.00000042  00000+0  00000+0 0  9990
2 44337  55.1319 170.2221 0025880 188.1190 353.7168  1.00252377 12747
COSMOS 2539             
1 44457U 19048A   22340.22688314  .00000095  00000+0  00000+0 0  9993
2 44457   0.0497 122.6501 0000612 274.7410 131.3024  1.00273684 12308
EDRS-C                  
1 44475U 19049A   22339.70647690  .00000167  00000+0  00000+0 0  9997
2 44475   0.0691 262.4339 0000708 322.6495 134.9262  1.00270053 12263
INTELSAT 39 (IS-39)     
1 44476U 19049B   22339.56134664  .00000045  00000+0  00000+0 0  9999
2 44476   0.0183 325.2845 0000795 184.0456 189.0455  1.00271290 12206
AMOS-17                 
1 44479U 19050A   22340.36993743  .00000123  00000+0  00000+0 0  9992
2 44479   0.0185 329.1945 0002255 284.8144 331.3061  1.00273416 12253
AEHF-5 (USA 292)        
1 44481U 19051A   22339.55360534  .00000096  00000+0  00000+0 0  9990
2 44481   3.9428 304.3725 0049721 352.2416  31.5467  1.00269694 12331
EUTELSAT 5 WEST B       
1 44624U 19067A   22339.75691406 -.00000029  00000+0  00000+0 0  9990
2 44624   0.0667 348.1709 0002921 195.1397 158.7253  1.00274446 11519
MEV-1                   
1 44625U 19067B   22339.39374479 -.00000191  00000+0  00000+0 0  9999
2 44625   0.0458  98.6688 0000841 176.6473 273.1048  1.00270236 11471
TJS-4                   
1 44637U 19070A   22340.69590703 -.00000156  00000+0  00000+0 0  9992
2 44637   0.0511  58.3587 0005225 288.0296  63.0939  1.00273273 11623
BEIDOU-3 IGSO-3         
1 44709U 19073A   22339.78149457 -.00000219  00000+0  10000-3 0  9994
2 44709  56.9907 294.5996 0026333 183.2282 356.1581  1.00256957 11511
TIBA-1                  
1 44800U 19080A   22339.76502039  .00000168  00000+0  00000+0 0  9998
2 44800   0.0529   3.1150 0002129 249.7951 132.5321  1.00271207 11127
INMARSAT GX5            
1 44801U 19080B   22339.54488885  .00000087  00000+0  00000+0 0  9997
2 44801   0.0413  28.5953 0002313 233.1029  19.7827  1.00273112 11157
JCSAT-18 (KACIFIC 1)    
1 44868U 19091A   22339.74576586 -.00000189  00000+0  00000+0 0  9994
2 44868   0.0462 130.1498 0000472 110.6970 252.1700  1.00269741 11163
ELEKTRO-L 3             
1 44903U 19095A   22339.86160760 -.00000085  00000+0  00000+0 0  9999
2 44903   0.0685  96.1874 0001555 132.6075 232.0351  1.00271013 10783
SHIJIAN-20 (SJ-20)      
1 44910U 19097A   22340.64613601  .00000169  00000+0  00000+0 0  9996
2 44910   1.6070  90.2513 0003483 142.9375 108.8080  1.00270246 10775
TJS-5                   
1 44978U 20002A   22339.06199676 -.00000331  00000+0  00000+0 0  9995
2 44978   0.0435 317.4650 0004910 238.6155   7.5463  1.00266419 10753
GSAT-30                 
1 45026U 20005A   22339.79334244 -.00000153  00000+0  00000+0 0  9997
2 45026   0.0180 272.8600 0002002 290.0825 240.2228  1.00270995 10579
EUTELSAT KONNECT        
1 45027U 20005B   22340.30882635  .00000063  00000+0  00000+0 0  9998
2 45027   0.0568 104.0827 0001502 268.5041 180.8749  1.00270068 11390
JCSAT-17                
1 45245U 20013A   22339.64825295 -.00000311  00000+0  00000+0 0  9990
2 45245   5.9985 346.0955 0003577 275.3317 182.3838  1.00271010 10309
GEO-KOMPSAT-2B          
1 45246U 20013B   22340.00813457 -.00000331  00000+0  00000+0 0  9992
2 45246   0.0067 250.5240 0002479  12.6413 302.8161  1.00272576 10320
BEIDOU-3 G2             
1 45344U 20017A   22340.56996087 -.00000129  00000+0  00000+0 0  9992
2 45344   1.9963   1.2100 0002201 211.2171 148.1421  1.00272231 10352
AEHF-6 (USA 298)        
1 45465U 20022B   22339.78532984 -.00000286  00000+0  00000+0 0  9990
2 45465   5.5472 301.5725 0050312 359.7808 193.7139  1.00272831 10089
BEIDOU-3 G3             
1 45807U 20040A   22340.34077105 -.00000340  00000+0  00000+0 0  9994
2 45807   1.0655 310.3852 0009206 340.5263  17.4301  1.00268802  9164
APSTAR 6D               
1 45863U 20045A   22339.70035748 -.00000306  00000+0  00000+0 0  9998
2 45863   0.0571 100.3396 0000311 137.8783 222.4222  1.00268527  8932
KOREASAT 116            
1 45920U 20048A   22339.83803897 -.00000350  00000+0  00000+0 0  9996
2 45920   0.0110 313.6478 0001139 291.5087 247.3489  1.00273860  8712
EXPRESS 103             
1 45985U 20053A   22339.83045899 -.00000268  00000+0  00000+0 0  9991
2 45985   0.0150 237.1644 0000566  54.2267 178.6867  1.00269986  8720
EXPRESS 80              
1 45986U 20053B   22339.57129145 -.00000124  00000+0  00000+0 0  9991
2 45986   0.0108 278.2287 0000941  81.1007   0.6857  1.00271066  8704
BSAT-4B                 
1 46112U 20056A   22339.49285135 -.00000339  00000+0  00000+0 0  9997
2 46112   0.0735 123.1476 0002218  70.6750 167.7149  1.00270053  8453
MEV-2                   
1 46113U 20056B   22339.39897469  .00000001  00000+0  00000+0 0  9991
2 46113   0.0394  98.2516 0001420 200.5878 277.9767  1.00271274  9133
GALAXY 30 (G-30)        
1 46114U 20056C   22339.30257024  .00000048  00000+0  00000+0 0  9991
2 46114   0.0181 338.8814 0002214 269.5205 169.6235  1.00273761  8356
GAOFEN 13               
1 46610U 20071A   22340.21176884 -.00000349  00000+0  00000+0 0  9990
2 46610   0.0982 225.0731 0003130 295.6795 108.3597  1.00270808  7970
TIANTONG-1 2            
1 46916U 20082A   22339.84363549 -.00000343  00000+0  00000+0 0  9998
2 46916   3.7152 294.4059 0002353 347.1112 221.7217  1.00268081  7725
LUCAS (JDRS-1)          
1 47202U 20089A   22339.41736649 -.00000224  00000+0  00000+0 0  9990
2 47202   0.0594 109.6484 0002588 151.1790  54.4029  1.00271506  7489
SXM-7                   
1 47240U 20096A   22338.80843391 -.00000195  00000+0  00000+0 0  9992
2 47240   0.0531  88.9326 0001622 104.5839  85.9085  1.00272615  7371
CMS-01                  
1 47256U 20099A   22339.79334245 -.00000153  00000+0  00000+0 0  9998
2 47256   0.0647 105.2437 0008582 159.5407 178.3996  1.00272139  7262
TURKSAT 5A              
1 47306U 21001A   22340.36437986  .00000167  00000+0  00000+0 0  9993
2 47306   0.0346  89.5422 0000177 194.5280 313.1554  1.00271783  7063
TIANTONG-1 3            
1 47321U 21003A   22340.57216117 -.00000141  00000+0  00000+0 0  9999
2 47321   4.0561 308.2696 0004001 312.8107 101.7774  1.00273518  7052
TJS-6                   
1 47613U 21010A   22340.56777199  .00000056  00000+0  00000+0 0  9996
2 47613   0.2382 294.1423 0002258  22.4072 141.6656  1.00271519  6884
SBIRS GEO-5 (USA 315)   
1 48618U 21042A   22338.68603030  .00000118  00000+0  00000+0 0  9998
2 48618   7.0646 325.8399 0002699 275.7347  99.7875  1.00272797  5827
FENGYUN 4B              
1 48808U 21047A   22340.53243671 -.00000309  00000+0  00000+0 0  9995
2 48808   0.0624 300.3562 0004254 115.5545 344.1073  1.00276147  5658
SXM-8                   
1 48838U 21049A   22338.80843391 -.00000195  00000+0  00000+0 0  9995
2 48838   0.0340 124.8580 0002985 229.2097 285.3614  1.00272616  5664
TIANLIAN 1-05           
1 49011U 21063A   22340.22688314  .00000122  00000+0  00000+0 0  9995
2 49011   1.7352 281.4646 0002809 316.1090 295.9420  1.00270840  5148
STAR ONE D2             
1 49055U 21069A   22337.99217062 -.00000257  00000+0  00000+0 0  9997
2 49055   0.0080 323.5559 0002472 257.4256 139.0141  1.00272778  4985
EUTELSAT QUANTUM        
1 49056U 21069B   22339.48047394  .00000137  00000+0  00000+0 0  9999
2 49056   0.0462  73.9031 0002336 187.9693  33.0772  1.00274375  4991
CHINASAT 2E (ZX 2E)     
1 49062U 21071A   22339.34702438 -.00000280  00000+0  00000+0 0  9991
2 49062   0.0266 268.8592 0002272  28.6037 359.6483  1.00273308  5115
TJS-7                   
1 49115U 21077A   22340.61764251 -.00000110  00000+0  00000+0 0  9991
2 49115   0.1466 117.4519 0002682  91.4393 349.3757  1.00272349  4891
CHINASAT 9B             
1 49125U 21080A   22339.83191995 -.00000300  00000+0  00000+0 0  9998
2 49125   0.0687 107.8942 0003202 124.8371 242.7734  1.00269946  4716
SHIJIAN-21 (SJ-21)      
1 49330U 21094A   22340.69333477 -.00000231  00000+0  00000+0 0  9993
2 49330   8.7694  48.9761 0092662  20.1265  45.2112  1.00156965  4339
SES-17                  
1 49332U 21095A   22339.32479847 -.00000261  00000+0  00000+0 0  9999
2 49332   0.0173  51.2402 0001179 204.3740 228.3266  1.00269231  4913
SYRACUSE 4A             
1 49333U 21095B   22339.55177487  .00000146  00000+0  00000+0 0  9991
2 49333   0.0138  22.0188 0001509 221.5492  74.9181  1.00271222  5043
QZS-1R                  
1 49336U 21096A   22340.21359931 -.00000262  00000+0  00000+0 0  9996
2 49336  34.8096  99.1385 0751895 270.9021 277.0682  1.00265373  4089
CHINASAT 1D (ZX 1D)     
1 49505U 21114A   22340.22202366 -.00000322  00000+0  00000+0 0  9992
2 49505   1.0419 277.0891 0001002 282.3094  85.6764  1.00268521  3908
STPSAT-6                
1 49817U 21118A   22339.60664285 -.00000034  00000+0  00000+0 0  9994
2 49817   0.0515 120.9542 0001712 145.2344 274.9381  1.00271150  3632
LDPE-1                  
1 49818U 21118B   22340.14935873  .00000074  00000+0  00000+0 0  9993
2 49818   0.8004  97.0089 0004157 165.8572  30.1422  1.01181309  3669
EXPRESS AMU-7           
1 50001U 21123A   22339.65795192 -.00000231  00000+0  00000+0 0  9993
2 50001   0.0171 228.4224 0000309  85.6525 142.2187  1.00270750  3600
EXPRESS AMU-3           
1 50002U 21123B   22338.51024050 -.00000313  00000+0  00000+0 0  9997
2 50002   0.0116 284.2029 0000272  41.4711  34.3389  1.00271995  3572
TIANLIAN 2-02           
1 50005U 21124A   22340.26320938  .00000000  00000+0  00000+0 0  9992
2 50005   2.1113 280.5397 0001800 316.4595 103.7570  1.00270035  3695
TURKSAT 5B              
1 50212U 21126A   22338.97718525  .00000156  00000+0  00000+0 0  9994
2 50212   0.0683 338.8282 0004349 319.8603 168.8795  1.00271820  3360
INMARSAT 6-F1           
1 50319U 21128A   22339.10671237 -.00000194  00000+0  00000+0 0  9991
2 50319   0.0221 300.4733 0000323   7.2720 136.5728  1.00271704  3323
